[{"OBJECT_NAME":"YUNHAI-1 03","OBJECT_ID":"2022-115A","EPOCH":"2026-03-09T22:42:18.502272","MEAN_MOTION":14.32645592,"ECCENTRICITY":0.00045037,"INCLINATION":98.5539,"RA_OF_ASC_NODE":68.3628,"ARG_OF_PERICENTER":355.0463,"MEAN_ANOMALY":5.0676,"EPHEMERIS_TYPE":0,"CLASSIFICATION_TYPE":"U","NORAD_CAT_ID":53877,"ELEMENT_SET_NO":999,"REV_AT_EPOCH":18130,"BSTAR":0.00016609215,"MEAN_MOTION_DOT":4.08e-6,"MEAN_MOTION_DDOT":0},{"OBJECT_NAME":"NOAA 16 DEB","OBJECT_ID":"2000-055HL","EPOCH":"2026-03-06T14:25:51.730752","MEAN_MOTION":14.34545424,"ECCENTRICITY":0.00237791,"INCLINATION":98.5977,"RA_OF_ASC_NODE":123.6788,"ARG_OF_PERICENTER":180.7173,"MEAN_ANOMALY":179.3982,"EPHEMERIS_TYPE":0,"CLASSIFICATION_TYPE":"U","NORAD_CAT_ID":41343,"ELEMENT_SET_NO":999,"REV_AT_EPOCH":52371,"BSTAR":0.002035426,"MEAN_MOTION_DOT":5.723e-5,"MEAN_MOTION_DDOT":0}]
